start=new Date('2021-10-21T00:00:00.000Z').valueOf();
sats=[{"OBJECT_NAME":"STARLINK-1851","APOAPSIS":"548.112","EPOCH":"2021-10-20T10:04:51.163104","ELEMENT_SET_NO":"999","MEAN_MOTION_DDOT":"0.0000000000000","ECCENTRICITY":"0.00012840","FILE":"3174382","MEAN_ELEMENT_THEORY":"SGP4","OBJECT_TYPE":"PAYLOAD","NORAD_CAT_ID":"46783","SITE":"AFETR","REV_AT_EPOCH":"5546","CLASSIFICATION_TYPE":"U","TIME_SYSTEM":"UTC","LAUNCH_DATE":"2020-10-24","RA_OF_ASC_NODE":"299.9925","RCS_SIZE":"LARGE","BSTAR":"0.00015111000000","TLE_LINE1":"1 46783U 20074AW  21293.42003661  .00001970  00000-0  15111-3 0  9999","MEAN_ANOMALY":"282.4139","COUNTRY_CODE":"US","MEAN_MOTION_DOT":"0.00001970","PERIAPSIS":"546.333","EPHEMERIS_TYPE":"0","GP_ID":"187714947","SEMIMAJOR_AXIS":"6925.357","ARG_OF_PERICENTER":"77.6993","PERIOD":"95.592","CENTER_NAME":"EARTH","MEAN_MOTION":"15.06397149","OBJECT_ID":"2020-074AW","TLE_LINE2":"2 46783  53.0556 299.9925 0001284  77.6993 282.4139 15.06397149 55469","REF_FRAME":"TEME","DECAY_DATE":null,"INCLINATION":"53.0556"},{"ARG_OF_PERICENTER":"78.6736","SEMIMAJOR_AXIS":"6925.346","PERIAPSIS":"546.247","EPHEMERIS_TYPE":"0","GP_ID":"187715697","MEAN_MOTION_DOT":"-0.00000395","COUNTRY_CODE":"US","DECAY_DATE":null,"INCLINATION":"53.0537","TLE_LINE2":"2 46784  53.0537 299.9690 0001391  78.6736 281.4409 15.06400916 55469","REF_FRAME":"TEME","OBJECT_ID":"2020-074AX","MEAN_MOTION":"15.06400916","CENTER_NAME":"EARTH","PERIOD":"95.592","OBJECT_TYPE":"PAYLOAD","NORAD_CAT_ID":"46784","MEAN_ELEMENT_THEORY":"SGP4","FILE":"3174382","ELEMENT_SET_NO":"999","MEAN_MOTION_DDOT":"0.0000000000000","ECCENTRICITY":"0.00013910","OBJECT_NAME":"STARLINK-1882","APOAPSIS":"548.174","EPOCH":"2021-10-20T10:10:09.380352","MEAN_ANOMALY":"281.4409","TLE_LINE1":"1 46784U 20074AX  21293.42371968 -.00000395  00000-0 -75981-5 0  9993","BSTAR":"-0.00000759810000","RCS_SIZE":"LARGE","TIME_SYSTEM":"UTC","RA_OF_ASC_NODE":"299.9690","LAUNCH_DATE":"2020-10-24","REV_AT_EPOCH":"5546","CLASSIFICATION_TYPE":"U","SITE":"AFETR"},{"RCS_SIZE":"LARGE","BSTAR":"-0.00002357700000","TLE_LINE1":"1 46785U 20074AY  21293.34262301 -.00000634  00000-0 -23577-4 0  9994","MEAN_ANOMALY":"137.2314","SITE":"AFETR","CLASSIFICATION_TYPE":"U","REV_AT_EPOCH":"5545","TIME_SYSTEM":"UTC","LAUNCH_DATE":"2020-10-24","RA_OF_ASC_NODE":"300.3530","FILE":"3174382","MEAN_ELEMENT_THEORY":"SGP4","OBJECT_TYPE":"PAYLOAD","NORAD_CAT_ID":"46785","APOAPSIS":"550.158","OBJECT_NAME":"STARLINK-1883","EPOCH":"2021-10-20T08:13:22.628064","ELEMENT_SET_NO":"999","ECCENTRICITY":"0.00042080","MEAN_MOTION_DDOT":"0.0000000000000","TLE_LINE2":"2 46785  53.0560 300.3530 0004208 222.8348 137.2314 15.06390242 55450","REF_FRAME":"TEME","DECAY_DATE":null,"INCLINATION":"53.0560","CENTER_NAME":"EARTH","PERIOD":"95.593","MEAN_MOTION":"15.06390242","OBJECT_ID":"2020-074AY","SEMIMAJOR_AXIS":"6925.378","ARG_OF_PERICENTER":"222.8348","COUNTRY_CODE":"US","MEAN_MOTION_DOT":"-0.00000634","PERIAPSIS":"544.329","EPHEMERIS_TYPE":"0","GP_ID":"187715948"},{"NORAD_CAT_ID":"46786","OBJECT_TYPE":"PAYLOAD","MEAN_ELEMENT_THEORY":"SGP4","FILE":"3175135","MEAN_MOTION_DDOT":"0.0000000000000","ECCENTRICITY":"0.00061070","ELEMENT_SET_NO":"999","EPOCH":"2021-10-20T15:41:54.017952","APOAPSIS":"551.477","OBJECT_NAME":"STARLINK-1893","MEAN_ANOMALY":"340.5870","TLE_LINE1":"1 46786U 20074AZ  21293.65409743 -.00001158  00000-0 -58685-4 0  9992","BSTAR":"-0.00005868500000","RCS_SIZE":"LARGE","RA_OF_ASC_NODE":"278.9386","LAUNCH_DATE":"2020-10-24","TIME_SYSTEM":"UTC","REV_AT_EPOCH":"5578","CLASSIFICATION_TYPE":"U","SITE":"AFETR","ARG_OF_PERICENTER":"19.5352","SEMIMAJOR_AXIS":"6925.383","EPHEMERIS_TYPE":"0","GP_ID":"187756115","PERIAPSIS":"543.018","MEAN_MOTION_DOT":"-0.00001158","COUNTRY_CODE":"US","INCLINATION":"53.0528","DECAY_DATE":null,"REF_FRAME":"TEME","TLE_LINE2":"2 46786  53.0528 278.9386 0006107  19.5352 340.5870 15.06388889 55786","OBJECT_ID":"2020-074AZ","MEAN_MOTION":"15.06388889","CENTER_NAME":"EARTH","PERIOD":"95.593"},{"SEMIMAJOR_AXIS":"6925.342","ARG_OF_PERICENTER":"339.3595","MEAN_MOTION_DOT":"-0.00000060","COUNTRY_CODE":"US","EPHEMERIS_TYPE":"0","GP_ID":"187715447","PERIAPSIS":"543.274","INCLINATION":"53.0510","DECAY_DATE":null,"REF_FRAME":"TEME","TLE_LINE2":"2 46787  53.0510 279.8695 0005679 339.3595  20.7163 15.06402251 55755","PERIOD":"95.592","CENTER_NAME":"EARTH","OBJECT_ID":"2020-074BA","MEAN_MOTION":"15.06402251","MEAN_ELEMENT_THEORY":"SGP4","FILE":"3174382","NORAD_CAT_ID":"46787","OBJECT_TYPE":"PAYLOAD","MEAN_MOTION_DDOT":"0.0000000000000","ECCENTRICITY":"0.00056790","ELEMENT_SET_NO":"999","EPOCH":"2021-10-20T10:44:39.435360","APOAPSIS":"551.140","OBJECT_NAME":"STARLINK-1899","BSTAR":"0.00001501600000","RCS_SIZE":"LARGE","MEAN_ANOMALY":"20.7163","TLE_LINE1":"1 46787U 20074BA  21293.44767865 -.00000060  00000-0  15016-4 0  9993","CLASSIFICATION_TYPE":"U","REV_AT_EPOCH":"5575","SITE":"AFETR","RA_OF_ASC_NODE":"279.8695","LAUNCH_DATE":"2020-10-24","TIME_SYSTEM":"UTC"},{"RCS_SIZE":"LARGE","BSTAR":"-0.00002686700000","TLE_LINE1":"1 46788U 20074BB  21293.44031975 -.00000684  00000-0 -26867-4 0  9999","MEAN_ANOMALY":"337.3883","SITE":"AFETR","CLASSIFICATION_TYPE":"U","REV_AT_EPOCH":"5575","TIME_SYSTEM":"UTC","RA_OF_ASC_NODE":"279.9060","LAUNCH_DATE":"2020-10-24","FILE":"3174382","MEAN_ELEMENT_THEORY":"SGP4","OBJECT_TYPE":"PAYLOAD","NORAD_CAT_ID":"46788","OBJECT_NAME":"STARLINK-1929","APOAPSIS":"552.259","EPOCH":"2021-10-20T10:34:03.626400","ELEMENT_SET_NO":"999","ECCENTRICITY":"0.00072840","MEAN_MOTION_DDOT":"0.0000000000000","TLE_LINE2":"2 46788  53.0568 279.9060 0007284  22.7427 337.3883 15.06399636 55755","REF_FRAME":"TEME","DECAY_DATE":null,"INCLINATION":"53.0568","CENTER_NAME":"EARTH","PERIOD":"95.592","MEAN_MOTION":"15.06399636","OBJECT_ID":"2020-074BB","SEMIMAJOR_AXIS":"6925.350","ARG_OF_PERICENTER":"22.7427","COUNTRY_CODE":"US","MEAN_MOTION_DOT":"-0.00000684","PERIAPSIS":"542.170","EPHEMERIS_TYPE":"0","GP_ID":"187715198"},{"FILE":"3174382","MEAN_ELEMENT_THEORY":"SGP4","NORAD_CAT_ID":"46789","OBJECT_TYPE":"PAYLOAD","EPOCH":"2021-10-20T07:33:33.448608","OBJECT_NAME":"STARLINK-1930","APOAPSIS":"548.230","MEAN_MOTION_DDOT":"0.0000000000000","ECCENTRICITY":"0.00014500","ELEMENT_SET_NO":"999","RCS_SIZE":"LARGE","BSTAR":"-0.00011806000000","TLE_LINE1":"1 46789U 20074BC  21293.31497047 -.00002039  00000-0 -11806-3 0  9994","MEAN_ANOMALY":"283.1086","SITE":"AFETR","REV_AT_EPOCH":"5531","CLASSIFICATION_TYPE":"U","RA_OF_ASC_NODE":"310.4695","LAUNCH_DATE":"2020-10-24","TIME_SYSTEM":"UTC","SEMIMAJOR_AXIS":"6925.361","ARG_OF_PERICENTER":"77.0064","COUNTRY_CODE":"US","MEAN_MOTION_DOT":"-0.00002039","GP_ID":"187716448","EPHEMERIS_TYPE":"0","PERIAPSIS":"546.222","REF_FRAME":"TEME","TLE_LINE2":"2 46789  53.0541 310.4695 0001450  77.0064 283.1086 15.06396010 55319","INCLINATION":"53.0541","DECAY_DATE":null,"CENTER_NAME":"EARTH","PERIOD":"95.592","MEAN_MOTION":"15.06396010","OBJECT_ID":"2020-074BC"},{"REF_FRAME":"TEME","TLE_LINE2":"2 46790  53.0554 309.9602 0001454  74.7070 285.4080 15.06386969 55323","INCLINATION":"53.0554","DECAY_DATE":null,"MEAN_MOTION":"15.06386969","OBJECT_ID":"2020-074BD","PERIOD":"95.593","CENTER_NAME":"EARTH","ARG_OF_PERICENTER":"74.7070","SEMIMAJOR_AXIS":"6925.388","GP_ID":"187716200","EPHEMERIS_TYPE":"0","PERIAPSIS":"546.247","COUNTRY_CODE":"US","MEAN_MOTION_DOT":"-0.00001712","TLE_LINE1":"1 46790U 20074BD  21293.42649112 -.00001712  00000-0 -96114-4 0  9993","MEAN_ANOMALY":"285.4080","RCS_SIZE":"LARGE","BSTAR":"-0.00009611400000","RA_OF_ASC_NODE":"309.9602","LAUNCH_DATE":"2020-10-24","TIME_SYSTEM":"UTC","SITE":"AFETR","CLASSIFICATION_TYPE":"U","REV_AT_EPOCH":"5532","NORAD_CAT_ID":"46790","OBJECT_TYPE":"PAYLOAD","FILE":"3174382","MEAN_ELEMENT_THEORY":"SGP4","EPOCH":"2021-10-20T10:14:08.832768","APOAPSIS":"548.260","OBJECT_NAME":"STARLINK-1931","MEAN_MOTION_DDOT":"0.0000000000000","ECCENTRICITY":"0.00014540","ELEMENT_SET_NO":"999"},{"MEAN_MOTION_DOT":"-0.00001877","COUNTRY_CODE":"US","PERIAPSIS":"546.305","EPHEMERIS_TYPE":"0","GP_ID":"187714948","SEMIMAJOR_AXIS":"6925.380","ARG_OF_PERICENTER":"76.1277","CENTER_NAME":"EARTH","PERIOD":"95.593","OBJECT_ID":"2020-074BE","MEAN_MOTION":"15.06389751","DECAY_DATE":null,"INCLINATION":"53.0537","TLE_LINE2":"2 46791  53.0537 310.2101 0001357  76.1277 283.9863 15.06389751 55325","REF_FRAME":"TEME","ELEMENT_SET_NO":"999","MEAN_MOTION_DDOT":"0.0000000000000","ECCENTRICITY":"0.00013570","OBJECT_NAME":"STARLINK-1933","APOAPSIS":"548.185","EPOCH":"2021-10-20T08:59:50.723232","MEAN_ELEMENT_THEORY":"SGP4","FILE":"3174382","OBJECT_TYPE":"PAYLOAD","NORAD_CAT_ID":"46791","CLASSIFICATION_TYPE":"U","REV_AT_EPOCH":"5532","SITE":"AFETR","TIME_SYSTEM":"UTC","RA_OF_ASC_NODE":"310.2101","LAUNCH_DATE":"2020-10-24","BSTAR":"-0.00010716000000","RCS_SIZE":"LARGE","MEAN_ANOMALY":"283.9863","TLE_LINE1":"1 46791U 20074BE  21293.37489263 -.00001877  00000-0 -10716-3 0  9992"},{"ARG_OF_PERICENTER":"84.8559","SEMIMAJOR_AXIS":"6925.343","EPHEMERIS_TYPE":"0","GP_ID":"187757117","PERIAPSIS":"546.304","MEAN_MOTION_DOT":"-0.00001534","COUNTRY_CODE":"US","INCLINATION":"53.0538","DECAY_DATE":null,"REF_FRAME":"TEME","TLE_LINE2":"2 46792  53.0538 298.5958 0001305  84.8559 275.2579 15.06401836 55515","OBJECT_ID":"2020-074BF","MEAN_MOTION":"15.06401836","PERIOD":"95.592","CENTER_NAME":"EARTH","NORAD_CAT_ID":"46792","OBJECT_TYPE":"PAYLOAD","MEAN_ELEMENT_THEORY":"SGP4","FILE":"3175135","MEAN_MOTION_DDOT":"0.0000000000000","ECCENTRICITY":"0.00013050","ELEMENT_SET_NO":"999","EPOCH":"2021-10-20T17:36:00.712512","APOAPSIS":"548.112","OBJECT_NAME":"STARLINK-1934","MEAN_ANOMALY":"275.2579","TLE_LINE1":"1 46792U 20074BF  21293.73334158 -.00001534  00000-0 -84106-4 0  9990","BSTAR":"-0.00008410600000","RCS_SIZE":"LARGE","LAUNCH_DATE":"2020-10-24","RA_OF_ASC_NODE":"298.5958","TIME_SYSTEM":"UTC","REV_AT_EPOCH":"5551","CLASSIFICATION_TYPE":"U","SITE":"AFETR"}];
